{
    "links": {
        "self": "http://www.neowsapp.com/rest/v1/neo/54017420?api_key=iIulBulltgU6a56xZRHN4H3l9WmuAYTsLGpBGhQ2"
    },
    "id": "54017420",
    "neo_reference_id": "54017420",
    "name": "(2020 LY)",
    "designation": "2020 LY",
    "nasa_jpl_url": "http://ssd.jpl.nasa.gov/sbdb.cgi?sstr=54017420",
    "absolute_magnitude_h": 23.657,
    "estimated_diameter": {
        "kilometers": {
            "estimated_diameter_min": 0.0493349823,
            "estimated_diameter_max": 0.1103163741
        },
        "meters": {
            "estimated_diameter_min": 49.3349822865,
            "estimated_diameter_max": 110.3163740613
        },
        "miles": {
            "estimated_diameter_min": 0.0306553273,
            "estimated_diameter_max": 0.0685473957
        },
        "feet": {
            "estimated_diameter_min": 161.8601832848,
            "estimated_diameter_max": 361.9303726753
        }
    },
    "is_potentially_hazardous_asteroid": false,
    "close_approach_data": [
        {
            "close_approach_date": "2020-06-19",
            "close_approach_date_full": "2020-Jun-19 13:48",
            "epoch_date_close_approach": 1592574480000,
            "relative_velocity": {
                "kilometers_per_second": "12.9034738081",
                "kilometers_per_hour": "46452.5057092972",
                "miles_per_hour": "28863.7805614241"
            },
            "miss_distance": {
                "astronomical": "0.1460435467",
                "lunar": "56.8109396663",
                "kilometers": "21847803.513565529",
                "miles": "13575595.5945971402"
            },
            "orbiting_body": "Earth"
        }
    ],
    "orbital_data": {
        "orbit_id": "4",
        "orbit_determination_date": "2020-07-04 08:52:18",
        "first_observation_date": "2020-06-14",
        "last_observation_date": "2020-06-17",
        "data_arc_in_days": 3,
        "observations_used": 21,
        "orbit_uncertainty": "8",
        "minimum_orbit_intersection": ".131356",
        "jupiter_tisserand_invariant": "3.103",
        "epoch_osculation": "2459016.5",
        "eccentricity": ".5808019785425546",
        "semi_major_axis": "2.563003753369973",
        "inclination": "20.08475990388692",
        "ascending_node_longitude": "254.8233302858722",
        "orbital_period": "1498.726167720734",
        "perihelion_distance": "1.074406102400699",
        "perihelion_argument": "40.19799145863745",
        "aphelion_distance": "4.051601404339247",
        "perihelion_time": "2459047.346639689387",
        "mean_anomaly": "352.5905141797401",
        "mean_motion": ".2402039863943183",
        "equinox": "J2000",
        "orbit_class": {
            "orbit_class_type": "AMO",
            "orbit_class_description": "Near-Earth asteroid orbits similar to that of 1221 Amor",
            "orbit_class_range": "1.017 AU < q (perihelion) < 1.3 AU"
        }
    },
    "is_sentry_object": false
}